IRIDIUM 921             
1 24873U 97034E   25015.46256322  .00287308  00000+0  12877-2 0  9994
2 24873  86.3635 180.4823 0002284 333.0037  27.1121 15.83438070508150
IRIDIUM 26              
1 24903U 97043A   25015.48499323  .00000719  00000+0  23663-3 0  9995
2 24903  86.3994 174.7075 0001813  95.5243 264.6161 14.36912926434810
IRIDIUM 22              
1 24907U 97043E   25015.49896523  .00000666  00000+0  22365-3 0  9992
2 24907  86.3996 178.1048 0002036  92.1962 267.9468 14.35751773434864
DUMMY MASS 1            
1 24925U 97048A   25015.58034451  .00000652  00000+0  70162-4 0  9995
2 24925  86.3348 205.8189 0005836 347.9487  12.1597 14.86733832482456
DUMMY MASS 2            
1 24926U 97048B   25015.58446044  .00000644  00000+0  69699-4 0  9995
2 24926  86.3348 207.3958 0007065 357.6108   2.5082 14.86487993482234
IRIDIUM 29              
1 24944U 97051A   25015.57410101  .00000638  00000+0  21202-3 0  9993
2 24944  86.3960 207.8380 0002158  85.9273 274.2171 14.36217990431368
IRIDIUM 33              
1 24946U 97051C   25015.60114152  .00000415  00000+0  13977-3 0  9999
2 24946  86.3876 207.0760 0006872 202.6973 157.3920 14.34722499430862
IRIDIUM 28              
1 24948U 97051E   25015.57683543  .00000571  00000+0  18557-3 0  9994
2 24948  86.3967 205.4407 0001730 100.6606 259.4787 14.37159489431922
